NORAD_CAT_ID,OBJECT_NAME,OBJECT_TYPE,EPOCH,MEAN_MOTION,ECCENTRICITY,INCLINATION,RA_OF_ASC_NODE,ARG_OF_PERICENTER,MEAN_ANOMALY,BSTAR,MEAN_MOTION_DOT,MEAN_MOTION_DDOT,TLE_LINE0,TLE_LINE1,TLE_LINE2,SEMIMAJOR_AXIS,PERIOD,APOGEE,PERIGEE,DECAYED
51469.0,STARLINK-3182,PAYLOAD,2023-10-22 22:59:09,15.08827615,0.0001342,53.2161,219.0117,98.6006,261.5138,-0.00023408,-4.01e-05,0.0,0 STARLINK-3182,1 51469U 22010P   23295.95774855 -.00004010  00000-0 -23408-3 0  9998,2 51469  53.2161 219.0117 0001342  98.6006 261.5138 15.08827615 95671,6917.918,95.438,540.712,538.855,0.0
51469.0,STARLINK-3182,PAYLOAD,2023-10-23 02:09:56,15.0881987,0.0001487,53.2162,218.4188,113.4801,246.6347,0.001125,0.00017652,0.0,0 STARLINK-3182,1 51469U 22010P   23296.09023234  .00017652  00000-0  11250-2 0  9997,2 51469  53.2162 218.4188 0001487 113.4801 246.6347 15.08819870 96190,6917.942,95.439,540.836,538.778,0.0
51469.0,STARLINK-3182,PAYLOAD,2023-10-23 11:42:15,15.08828728,0.0001415,53.216,216.6344,111.2343,248.8801,0.00090284,0.00014105,0.0,0 STARLINK-3182,1 51469U 22010P   23296.48767629  .00014105  00000-0  90284-3 0  9998,2 51469  53.2160 216.6344 0001415 111.2343 248.8801 15.08828728 95752,6917.915,95.438,540.759,538.801,0.0
51469.0,STARLINK-3182,PAYLOAD,2023-10-24 03:36:06,15.0884845,0.0001486,53.2161,213.6608,113.1254,246.9895,0.0010137,0.00015886,0.0,0 STARLINK-3182,1 51469U 22010P   23297.15007742  .00015886  00000-0  10137-2 0  9991,2 51469  53.2161 213.6608 0001486 113.1254 246.9895 15.08848450 96356,6917.855,95.437,540.748,538.692,0.0
51469.0,STARLINK-3182,PAYLOAD,2023-10-24 11:33:02,15.08846918,0.000145,53.2162,212.173,108.971,251.144,0.00058518,9.039e-05,0.0,0 STARLINK-3182,1 51469U 22010P   23297.48127664  .00009039  00000-0  58518-3 0  9992,2 51469  53.2162 212.1730 0001450 108.9710 251.1440 15.08846918 95908,6917.859,95.437,540.727,538.721,0.0
51469.0,STARLINK-3182,PAYLOAD,2023-10-25 03:26:53,15.08855485,0.0001557,53.2167,209.1966,97.5247,262.5922,0.00054099,8.336e-05,0.0,0 STARLINK-3182,1 51469U 22010P   23298.14367325  .00008336  00000-0  54099-3 0  9995,2 51469  53.2167 209.1966 0001557  97.5247 262.5922 15.08855485 96503,6917.833,95.437,540.775,538.621,0.0
51469.0,STARLINK-3182,PAYLOAD,2023-10-25 22:31:31,15.08844697,0.0002214,53.2174,205.628,85.9034,274.2211,0.00032143,4.832e-05,0.0,0 STARLINK-3182,1 51469U 22010P   23298.93855707  .00004832  00000-0  32143-3 0  9991,2 51469  53.2174 205.6280 0002214  85.9034 274.2211 15.08844697 96129,6917.866,95.437,541.263,538.199,0.0
51469.0,STARLINK-3182,PAYLOAD,2023-10-26 03:17:40,15.08852267,0.0001436,53.2165,204.7364,101.5985,258.5169,0.00033462,5.043e-05,0.0,0 STARLINK-3182,1 51469U 22010P   23299.13727256  .00005043  00000-0  33462-3 0  9991,2 51469  53.2165 204.7364 0001436 101.5985 258.5169 15.08852267 96654,6917.843,95.437,540.701,538.714,0.0
51469.0,STARLINK-3182,PAYLOAD,2023-10-26 23:57:40,15.08853493,0.0001586,53.216,200.871,82.4965,277.6207,0.00059799,9.245e-05,0.0,0 STARLINK-3182,1 51469U 22010P   23299.99839008  .00009245  00000-0  59799-3 0  9993,2 51469  53.2160 200.8710 0001586  82.4965 277.6207 15.08853493 96783,6917.839,95.437,540.801,538.607,0.0
51469.0,STARLINK-3182,PAYLOAD,2023-10-27 11:05:22,15.08846301,0.0001555,53.2167,198.7871,101.1138,259.0029,0.00030557,4.579e-05,0.0,0 STARLINK-3182,1 51469U 22010P   23300.46206941  .00004579  00000-0  30557-3 0  9998,2 51469  53.2167 198.7871 0001555 101.1138 259.0029 15.08846301 96854,6917.861,95.437,540.802,538.65,0.0
51469.0,STARLINK-3182,PAYLOAD,2023-10-27 20:37:41,15.0884181,0.0001765,53.2166,197.0027,104.3323,255.7865,3.5773e-05,2.81e-06,0.0,0 STARLINK-3182,1 51469U 22010P   23300.85951194  .00000281  00000-0  35773-4 0  9990,2 51469  53.2166 197.0027 0001765 104.3323 255.7865 15.08841810 96910,6917.875,95.437,540.961,538.519,0.0
51469.0,STARLINK-3182,PAYLOAD,2023-10-27 22:13:05,15.0883946,0.0001726,53.2167,196.7055,106.8911,253.2271,-3.5533e-06,-3.45e-06,0.0,0 STARLINK-3182,1 51469U 22010P   23300.92575252 -.00000345  00000-0 -35533-5 0  9993,2 51469  53.2167 196.7055 0001726 106.8911 253.2271 15.08839460 96423,6917.882,95.438,540.941,538.553,0.0
51469.0,STARLINK-3182,PAYLOAD,2023-10-28 02:59:14,15.0883879,0.0001591,53.2164,195.8161,88.2389,271.8785,-4.7271e-06,-3.63e-06,0.0,0 STARLINK-3182,1 51469U 22010P   23301.12447391 -.00000363  00000-0 -47271-5 0  9990,2 51469  53.2164 195.8161 0001591  88.2389 271.8785 15.08838790 96454,6917.884,95.438,540.85,538.648,0.0
51469.0,STARLINK-3182,PAYLOAD,2023-10-28 22:03:52,15.08845877,0.0001652,53.2162,192.2476,86.6505,273.4676,0.00014255,1.982e-05,0.0,0 STARLINK-3182,1 51469U 22010P   23301.91935337  .00001982  00000-0  14255-3 0  9999,2 51469  53.2162 192.2476 0001652  86.6505 273.4676 15.08845877 96576,6917.862,95.437,540.87,538.585,0.0
51469.0,STARLINK-3182,PAYLOAD,2023-10-28 23:39:15,15.08848457,0.0001429,53.2155,191.9491,82.7703,277.3451,0.00021958,3.209e-05,0.0,0 STARLINK-3182,1 51469U 22010P   23301.98559185  .00003209  00000-0  21958-3 0  9991,2 51469  53.2155 191.9491 0001429  82.7703 277.3451 15.08848457 97088,6917.855,95.437,540.708,538.731,0.0
51469.0,STARLINK-3182,PAYLOAD,2023-10-29 09:11:34,15.08845074,0.0001499,53.2158,190.1662,82.0128,278.1034,0.00031622,4.749e-05,0.0,0 STARLINK-3182,1 51469U 22010P   23302.38303407  .00004749  00000-0  31622-3 0  9999,2 51469  53.2158 190.1662 0001499  82.0128 278.1034 15.08845074 96642,6917.865,95.437,540.767,538.693,0.0
51469.0,STARLINK-3182,PAYLOAD,2023-10-29 20:19:16,15.0884289,0.0001542,53.2166,188.0864,97.0951,263.0217,0.00020496,2.976e-05,0.0,0 STARLINK-3182,1 51469U 22010P   23302.84671556  .00002976  00000-0  20496-3 0  9990,2 51469  53.2166 188.0864 0001542  97.0951 263.0217 15.08842890 97213,6917.872,95.437,540.803,538.67,0.0
51469.0,STARLINK-3182,PAYLOAD,2023-10-29 21:54:39,15.08844305,0.0001521,53.2162,187.7895,95.1057,265.0109,0.00021817,3.186e-05,0.0,0 STARLINK-3182,1 51469U 22010P   23302.91295425  .00003186  00000-0  21817-3 0  9997,2 51469  53.2162 187.7895 0001521  95.1057 265.0109 15.08844305 96722,6917.867,95.437,540.784,538.68,0.0
51469.0,STARLINK-3182,PAYLOAD,2023-10-30 20:10:03,15.08827914,0.0001295,53.2153,183.6245,75.031,285.0826,-0.00023702,-4.057e-05,0.0,0 STARLINK-3182,1 51469U 22010P   23303.84032051 -.00004057  00000-0 -23702-3 0  9999,2 51469  53.2153 183.6245 0001295  75.0310 285.0826 15.08827914 97369,6917.917,95.438,540.678,538.886,0.0
51469.0,STARLINK-3182,PAYLOAD,2023-10-30 21:45:26,15.08829413,0.0001367,53.2152,183.3277,79.996,280.1186,-0.00018784,-3.275e-05,0.0,0 STARLINK-3182,1 51469U 22010P   23303.90656073 -.00003275  00000-0 -18784-3 0  9997,2 51469  53.2152 183.3277 0001367  79.9960 280.1186 15.08829413 96870,6917.913,95.438,540.723,538.832,0.0
51469.0,STARLINK-3182,PAYLOAD,2023-10-31 00:56:13,15.08834177,0.0001392,53.2157,182.7343,87.2779,272.8373,-5.4093e-05,-1.149e-05,0.0,0 STARLINK-3182,1 51469U 22010P   23304.03903995 -.00001149  00000-0 -54093-4 0  9992,2 51469  53.2157 182.7343 0001392  87.2779 272.8373 15.08834177 97397,6917.898,95.438,540.726,538.8,0.0
51469.0,STARLINK-3182,PAYLOAD,2023-10-31 21:36:13,15.08848925,0.0001262,53.2151,178.8685,88.561,271.5527,0.00048682,7.47e-05,0.0,0 STARLINK-3182,1 51469U 22010P   23304.90015874  .00007470  00000-0  48682-3 0  9995,2 51469  53.2151 178.8685 0001262  88.5610 271.5527 15.08848925 97023,6917.853,95.437,540.591,538.845,0.0
51469.0,STARLINK-3182,PAYLOAD,2023-11-01 00:46:59,15.08860167,0.0001218,53.2145,178.2735,80.515,279.5979,0.0010269,0.00016102,0.0,0 STARLINK-3182,1 51469U 22010P   23305.03263798  .00016102  00000-0  10269-2 0  9991,2 51469  53.2145 178.2735 0001218  80.5150 279.5979 15.08860167 97546,6917.819,95.436,540.526,538.841,0.0
51469.0,STARLINK-3182,PAYLOAD,2023-11-01 08:43:55,15.08849388,0.0001408,53.2135,176.7851,83.1875,276.9277,0.00044915,6.869e-05,0.0,0 STARLINK-3182,1 51469U 22010P   23305.36383863  .00006869  00000-0  44915-3 0  9998,2 51469  53.2135 176.7851 0001408  83.1875 276.9277 15.08849388 97590,6917.852,95.437,540.691,538.743,0.0
51469.0,STARLINK-3182,PAYLOAD,2023-11-01 21:27:00,15.08841924,0.0001542,53.2142,174.4069,82.9897,277.1271,6.2766e-05,7.11e-06,0.0,0 STARLINK-3182,1 51469U 22010P   23305.89376012  .00000711  00000-0  62766-4 0  9999,2 51469  53.2142 174.4069 0001542  82.9897 277.1271 15.08841924 97678,6917.875,95.437,540.806,538.673,0.0
51469.0,STARLINK-3182,PAYLOAD,2023-11-02 08:34:42,15.08840996,0.0001378,53.2141,172.3249,90.3006,269.8144,5.4025e-05,5.72e-06,0.0,0 STARLINK-3182,1 51469U 22010P   23306.35743941  .00000572  00000-0  54025-4 0  9994,2 51469  53.2141 172.3249 0001378  90.3006 269.8144 15.08840996 97244,6917.877,95.437,540.696,538.789,0.0
51469.0,STARLINK-3182,PAYLOAD,2023-11-02 21:17:47,15.08842642,0.0001393,53.2145,169.9452,92.1242,267.9909,3.1402e-05,2.12e-06,0.0,0 STARLINK-3182,1 51469U 22010P   23306.88735883  .00000212  00000-0  31402-4 0  9993,2 51469  53.2145 169.9452 0001393  92.1242 267.9909 15.08842642 97322,6917.872,95.437,540.701,538.774,0.0
51469.0,STARLINK-3182,PAYLOAD,2023-11-03 00:28:33,15.08849195,0.0001364,53.2154,169.3478,97.1942,262.9205,7.3843e-05,8.88e-06,0.0,0 STARLINK-3182,1 51469U 22010P   23307.01983559  .00000888  00000-0  73843-4 0  9998,2 51469  53.2154 169.3478 0001364  97.1942 262.9205 15.08849195 97845,6917.852,95.437,540.661,538.774,0.0
51469.0,STARLINK-3182,PAYLOAD,2023-11-03 21:08:35,15.08840552,0.0001484,53.2152,165.4851,80.4854,279.6306,8.5766e-05,1.077e-05,0.0,0 STARLINK-3182,1 51469U 22010P   23307.88096358  .00001077  00000-0  85766-4 0  9993,2 51469  53.2152 165.4851 0001484  80.4854 279.6306 15.08840552 97974,6917.879,95.438,540.77,538.717,0.0
51469.0,STARLINK-3182,PAYLOAD,2023-11-04 08:16:17,15.08838485,0.0001511,53.2158,163.4013,91.1583,268.9582,7.9016e-05,9.7e-06,0.0,0 STARLINK-3182,1 51469U 22010P   23308.34464424  .00000970  00000-0  79016-4 0  9990,2 51469  53.2158 163.4013 0001511  91.1583 268.9582 15.08838485 97549,6917.885,95.438,540.795,538.705,0.0
